STARLINK-3820           
1 52364U 22045AK  25240.54851480  .00015972  00000+0  10197-2 0  9994
2 52364  53.2175 336.0831 0001375  91.8513 268.2637 15.08828176186760
STARLINK-3874           
1 52365U 22045AL  25241.23300293  .00001480  00000+0  11105-3 0  9993
2 52365  53.2204 333.0943 0001156  86.9890 273.1235 15.08834259186864
STARLINK-3808           
1 52366U 22045AM  25240.55219431  .00000400  00000+0  43196-4 0  9998
2 52366  53.2181 336.1536 0001456  92.2318 267.8841 15.08841129186765
STARLINK-3817           
1 52367U 22045AN  25240.55955774 -.00000047  00000+0  15148-4 0  9990
2 52367  53.2195 336.1185 0001354  93.1072 267.0075 15.08837590186763
STARLINK-3834           
1 52368U 22045AP  25240.54114963  .00000485  00000+0  48571-4 0  9998
2 52368  53.2184 336.2000 0001317  89.1083 271.0060 15.08846842186753
STARLINK-3841           
1 52369U 22045AQ  25240.48964050 -.00000406  00000+0 -73937-5 0  9992
2 52369  53.2199 336.4361 0001450  84.5240 275.5918 15.08836952186756
STARLINK-3827           
1 52370U 22045AR  25240.54947146  .00000351  00000+0  40116-4 0  9997
2 52370  53.2187 336.1756 0001376  92.7842 267.3308 15.08843287186768
STARLINK-3798           
1 52371U 22045AS  25241.27443557  .00000913  00000+0  75463-4 0  9993
2 52371  53.2190 332.9212 0001488  93.7781 266.3381 15.08833577186863
STARLINK-3796           
1 52372U 22045AT  25241.26611943  .00000760  00000+0  65824-4 0  9999
2 52372  53.2183 332.9444 0001331  90.7730 269.3415 15.08836436186869
STARLINK-3550           
1 52373U 22045AU  25240.59268140  .00000411  00000+0  43903-4 0  9999
2 52373  53.2190 335.9675 0001307  86.5659 273.5482 15.08837413186770
STARLINK-3762           
1 52374U 22045AV  25240.53011183  .00000911  00000+0  75283-4 0  9998
2 52374  53.2189 336.2496 0001355  83.5402 276.5745 15.08847392186761
STARLINK-3785           
1 52375U 22045AW  25241.26243557  .00000944  00000+0  77422-4 0  9995
2 52375  53.2191 332.9611 0001385  84.7301 275.3849 15.08840283186877
STARLINK-3767           
1 52376U 22045AX  25240.58899859  .00000201  00000+0  30747-4 0  9997
2 52376  53.2197 335.9864 0001561  73.9559 286.1605 15.08839158186776
STARLINK-3805           
1 52377U 22045AY  25240.54485838 -.00000375  00000+0 -54623-5 0  9996
2 52377  53.2189 336.4064 0001303  94.4802 265.6340 15.08842961186751
STARLINK-3806           
1 52378U 22045AZ  25240.58163480  .00000552  00000+0  52770-4 0  9992
2 52378  53.2187 336.0190 0001314  84.3155 275.7988 15.08845155186777
STARLINK-3800           
1 52379U 22045BA  25241.24772293  .00005680  00000+0  37464-3 0  9994
2 52379  53.2178 333.0272 0001352  75.1405 284.9737 15.08840883186872
