[{"OBJECT_NAME":"STARLINK-3820","OBJECT_ID":"2022-045AK","EPOCH":"2025-08-28T13:09:51.678720","MEAN_MOTION":15.08828176,"ECCENTRICITY":0.00013759,"INCLINATION":53.2175,"RA_OF_ASC_NODE":336.0831,"ARG_OF_PERICENTER":91.8513,"MEAN_ANOMALY":268.2637,"EPHEMERIS_TYPE":0,"CLASSIFICATION_TYPE":"U","NORAD_CAT_ID":52364,"ELEMENT_SET_NO":999,"REV_AT_EPOCH":18676,"BSTAR":0.0010196517,"MEAN_MOTION_DOT":0.00015972,"MEAN_MOTION_DDOT":0},{"OBJECT_NAME":"STARLINK-3874","OBJECT_ID":"2022-045AL","EPOCH":"2025-08-29T05:35:31.453152","MEAN_MOTION":15.08834259,"ECCENTRICITY":0.00011565,"INCLINATION":53.2204,"RA_OF_ASC_NODE":333.0943,"ARG_OF_PERICENTER":86.989,"MEAN_ANOMALY":273.1235,"EPHEMERIS_TYPE":0,"CLASSIFICATION_TYPE":"U","NORAD_CAT_ID":52365,"ELEMENT_SET_NO":999,"REV_AT_EPOCH":18686,"BSTAR":0.00011104788,"MEAN_MOTION_DOT":1.48e-5,"MEAN_MOTION_DDOT":0},{"OBJECT_NAME":"STARLINK-3808","OBJECT_ID":"2022-045AM","EPOCH":"2025-08-28T13:15:09.588384","MEAN_MOTION":15.08841129,"ECCENTRICITY":0.00014568,"INCLINATION":53.2181,"RA_OF_ASC_NODE":336.1536,"ARG_OF_PERICENTER":92.2318,"MEAN_ANOMALY":267.8841,"EPHEMERIS_TYPE":0,"CLASSIFICATION_TYPE":"U","NORAD_CAT_ID":52366,"ELEMENT_SET_NO":999,"REV_AT_EPOCH":18676,"BSTAR":4.3195917e-5,"MEAN_MOTION_DOT":4.0e-6,"MEAN_MOTION_DDOT":0},{"OBJECT_NAME":"STARLINK-3817","OBJECT_ID":"2022-045AN","EPOCH":"2025-08-28T13:25:45.788736","MEAN_MOTION":15.0883759,"ECCENTRICITY":0.00013543,"INCLINATION":53.2195,"RA_OF_ASC_NODE":336.1185,"ARG_OF_PERICENTER":93.1072,"MEAN_ANOMALY":267.0075,"EPHEMERIS_TYPE":0,"CLASSIFICATION_TYPE":"U","NORAD_CAT_ID":52367,"ELEMENT_SET_NO":999,"REV_AT_EPOCH":18676,"BSTAR":1.5147744e-5,"MEAN_MOTION_DOT":-4.7e-7,"MEAN_MOTION_DDOT":0},{"OBJECT_NAME":"STARLINK-3834","OBJECT_ID":"2022-045AP","EPOCH":"2025-08-28T12:59:15.328032","MEAN_MOTION":15.08846842,"ECCENTRICITY":0.00013173,"INCLINATION":53.2184,"RA_OF_ASC_NODE":336.2,"ARG_OF_PERICENTER":89.1083,"MEAN_ANOMALY":271.006,"EPHEMERIS_TYPE":0,"CLASSIFICATION_TYPE":"U","NORAD_CAT_ID":52368,"ELEMENT_SET_NO":999,"REV_AT_EPOCH":18675,"BSTAR":4.8570885e-5,"MEAN_MOTION_DOT":4.85e-6,"MEAN_MOTION_DDOT":0},{"OBJECT_NAME":"STARLINK-3841","OBJECT_ID":"2022-045AQ","EPOCH":"2025-08-28T11:45:04.939200","MEAN_MOTION":15.08836952,"ECCENTRICITY":0.00014509,"INCLINATION":53.2199,"RA_OF_ASC_NODE":336.4361,"ARG_OF_PERICENTER":84.524,"MEAN_ANOMALY":275.5918,"EPHEMERIS_TYPE":0,"CLASSIFICATION_TYPE":"U","NORAD_CAT_ID":52369,"ELEMENT_SET_NO":999,"REV_AT_EPOCH":18675,"BSTAR":-7.393654e-6,"MEAN_MOTION_DOT":-4.06e-6,"MEAN_MOTION_DDOT":0},{"OBJECT_NAME":"STARLINK-3827","OBJECT_ID":"2022-045AR","EPOCH":"2025-08-28T13:11:14.334144","MEAN_MOTION":15.08843287,"ECCENTRICITY":0.00013769,"INCLINATION":53.2187,"RA_OF_ASC_NODE":336.1756,"ARG_OF_PERICENTER":92.7842,"MEAN_ANOMALY":267.3308,"EPHEMERIS_TYPE":0,"CLASSIFICATION_TYPE":"U","NORAD_CAT_ID":52370,"ELEMENT_SET_NO":999,"REV_AT_EPOCH":18676,"BSTAR":4.0115526e-5,"MEAN_MOTION_DOT":3.51e-6,"MEAN_MOTION_DDOT":0},{"OBJECT_NAME":"STARLINK-3798","OBJECT_ID":"2022-045AS","EPOCH":"2025-08-29T06:35:11.233248","MEAN_MOTION":15.08833577,"ECCENTRICITY":0.00014889,"INCLINATION":53.219,"RA_OF_ASC_NODE":332.9212,"ARG_OF_PERICENTER":93.7781,"MEAN_ANOMALY":266.3381,"EPHEMERIS_TYPE":0,"CLASSIFICATION_TYPE":"U","NORAD_CAT_ID":52371,"ELEMENT_SET_NO":999,"REV_AT_EPOCH":18686,"BSTAR":7.5462816e-5,"MEAN_MOTION_DOT":9.13e-6,"MEAN_MOTION_DDOT":0},{"OBJECT_NAME":"STARLINK-3796","OBJECT_ID":"2022-045AT","EPOCH":"2025-08-29T06:23:12.718752","MEAN_MOTION":15.08836436,"ECCENTRICITY":0.00013311,"INCLINATION":53.2183,"RA_OF_ASC_NODE":332.9444,"ARG_OF_PERICENTER":90.773,"MEAN_ANOMALY":269.3415,"EPHEMERIS_TYPE":0,"CLASSIFICATION_TYPE":"U","NORAD_CAT_ID":52372,"ELEMENT_SET_NO":999,"REV_AT_EPOCH":18686,"BSTAR":6.5823607e-5,"MEAN_MOTION_DOT":7.6e-6,"MEAN_MOTION_DDOT":0},{"OBJECT_NAME":"STARLINK-3550","OBJECT_ID":"2022-045AU","EPOCH":"2025-08-28T14:13:27.672960","MEAN_MOTION":15.08837413,"ECCENTRICITY":0.00013079,"INCLINATION":53.219,"RA_OF_ASC_NODE":335.9675,"ARG_OF_PERICENTER":86.5659,"MEAN_ANOMALY":273.5482,"EPHEMERIS_TYPE":0,"CLASSIFICATION_TYPE":"U","NORAD_CAT_ID":52373,"ELEMENT_SET_NO":999,"REV_AT_EPOCH":18677,"BSTAR":4.3903105e-5,"MEAN_MOTION_DOT":4.11e-6,"MEAN_MOTION_DDOT":0},{"OBJECT_NAME":"STARLINK-3762","OBJECT_ID":"2022-045AV","EPOCH":"2025-08-28T12:43:21.662112","MEAN_MOTION":15.08847392,"ECCENTRICITY":0.00013551,"INCLINATION":53.2189,"RA_OF_ASC_NODE":336.2496,"ARG_OF_PERICENTER":83.5402,"MEAN_ANOMALY":276.5745,"EPHEMERIS_TYPE":0,"CLASSIFICATION_TYPE":"U","NORAD_CAT_ID":52374,"ELEMENT_SET_NO":999,"REV_AT_EPOCH":18676,"BSTAR":7.528309e-5,"MEAN_MOTION_DOT":9.11e-6,"MEAN_MOTION_DDOT":0},{"OBJECT_NAME":"STARLINK-3785","OBJECT_ID":"2022-045AW","EPOCH":"2025-08-29T06:17:54.433248","MEAN_MOTION":15.08840283,"ECCENTRICITY":0.00013854,"INCLINATION":53.2191,"RA_OF_ASC_NODE":332.9611,"ARG_OF_PERICENTER":84.7301,"MEAN_ANOMALY":275.3849,"EPHEMERIS_TYPE":0,"CLASSIFICATION_TYPE":"U","NORAD_CAT_ID":52375,"ELEMENT_SET_NO":999,"REV_AT_EPOCH":18687,"BSTAR":7.7422269e-5,"MEAN_MOTION_DOT":9.44e-6,"MEAN_MOTION_DDOT":0},{"OBJECT_NAME":"STARLINK-3767","OBJECT_ID":"2022-045AX","EPOCH":"2025-08-28T14:08:09.478176","MEAN_MOTION":15.08839158,"ECCENTRICITY":0.00015616,"INCLINATION":53.2197,"RA_OF_ASC_NODE":335.9864,"ARG_OF_PERICENTER":73.9559,"MEAN_ANOMALY":286.1605,"EPHEMERIS_TYPE":0,"CLASSIFICATION_TYPE":"U","NORAD_CAT_ID":52376,"ELEMENT_SET_NO":999,"REV_AT_EPOCH":18677,"BSTAR":3.0746984e-5,"MEAN_MOTION_DOT":2.01e-6,"MEAN_MOTION_DDOT":0},{"OBJECT_NAME":"STARLINK-3805","OBJECT_ID":"2022-045AY","EPOCH":"2025-08-28T13:04:35.764032","MEAN_MOTION":15.08842961,"ECCENTRICITY":0.00013038,"INCLINATION":53.2189,"RA_OF_ASC_NODE":336.4064,"ARG_OF_PERICENTER":94.4802,"MEAN_ANOMALY":265.634,"EPHEMERIS_TYPE":0,"CLASSIFICATION_TYPE":"U","NORAD_CAT_ID":52377,"ELEMENT_SET_NO":999,"REV_AT_EPOCH":18675,"BSTAR":-5.462334e-6,"MEAN_MOTION_DOT":-3.75e-6,"MEAN_MOTION_DDOT":0},{"OBJECT_NAME":"STARLINK-3806","OBJECT_ID":"2022-045AZ","EPOCH":"2025-08-28T13:57:33.246720","MEAN_MOTION":15.08845155,"ECCENTRICITY":0.00013144,"INCLINATION":53.2187,"RA_OF_ASC_NODE":336.019,"ARG_OF_PERICENTER":84.3155,"MEAN_ANOMALY":275.7988,"EPHEMERIS_TYPE":0,"CLASSIFICATION_TYPE":"U","NORAD_CAT_ID":52378,"ELEMENT_SET_NO":999,"REV_AT_EPOCH":18677,"BSTAR":5.2770176e-5,"MEAN_MOTION_DOT":5.52e-6,"MEAN_MOTION_DDOT":0},{"OBJECT_NAME":"STARLINK-3800","OBJECT_ID":"2022-045BA","EPOCH":"2025-08-29T05:56:43.261152","MEAN_MOTION":15.08840883,"ECCENTRICITY":0.0001352,"INCLINATION":53.2178,"RA_OF_ASC_NODE":333.0272,"ARG_OF_PERICENTER":75.1405,"MEAN_ANOMALY":284.9737,"EPHEMERIS_TYPE":0,"CLASSIFICATION_TYPE":"U","NORAD_CAT_ID":52379,"ELEMENT_SET_NO":999,"REV_AT_EPOCH":18687,"BSTAR":0.00037464449,"MEAN_MOTION_DOT":5.68e-5,"MEAN_MOTION_DDOT":0}]
